{
  "type": "FeatureCollection",
  "features": [
    {
      "type": "Feature",
      "properties": {
        "norad_id": 58701,
        "name": "TIANMU-1 16",
        "group": "weather",
        "lat": 70.35967833067586,
        "lon": 6.110319564804627,
        "alt_km": 488.85277425133063,
        "timestamp": "2025-12-09T16:56:36.223611+00:00",
        "meta_object_name": "TIANMU-1 16",
        "meta_object_id": "2024-004B",
        "meta_epoch": "2025-12-09T13:19:10.352352",
        "meta_mean_motion": 15.24365763,
        "meta_eccentricity": 0.0004642,
        "meta_inclination": 97.4569,
        "meta_ra_of_asc_node": 164.4285,
        "meta_arg_of_pericenter": 310.5776,
        "meta_mean_anomaly": 49.5057,
        "meta_ephemeris_type": 0,
        "meta_classification_type": "U",
        "meta_norad_cat_id": 58701,
        "meta_element_set_no": 999,
        "meta_rev_at_epoch": 10686,
        "meta_bstar": 0.00040877,
        "meta_mean_motion_dot": 9.944e-05,
        "meta_mean_motion_ddot": 0,
        "tle_line1": "1 58701U 24004B   25343.55498093  .00009944  00000+0  40877-3 0  9995",
        "tle_line2": "2 58701  97.4569 164.4285 0004642 310.5776  49.5057 15.24365763106861"
      },
      "geometry": {
        "type": "Point",
        "coordinates": [
          6.110319564804627,
          70.35967833067586
        ]
      }
    },
    {
      "type": "Feature",
      "properties": {
        "norad_id": 58702,
        "name": "TIANMU-1 17",
        "group": "weather",
        "lat": -12.153136730458789,
        "lon": -16.629842360769782,
        "alt_km": 498.4657367196978,
        "timestamp": "2025-12-09T16:56:36.223621+00:00",
        "meta_object_name": "TIANMU-1 17",
        "meta_object_id": "2024-004C",
        "meta_epoch": "2025-12-09T12:57:07.423200",
        "meta_mean_motion": 15.2440978,
        "meta_eccentricity": 0.0003859,
        "meta_inclination": 97.4604,
        "meta_ra_of_asc_node": 164.8217,
        "meta_arg_of_pericenter": 314.337,
        "meta_mean_anomaly": 45.7551,
        "meta_ephemeris_type": 0,
        "meta_classification_type": "U",
        "meta_norad_cat_id": 58702,
        "meta_element_set_no": 999,
        "meta_rev_at_epoch": 10685,
        "meta_bstar": 0.00041785,
        "meta_mean_motion_dot": 0.0001018,
        "meta_mean_motion_ddot": 0,
        "tle_line1": "1 58702U 24004C   25343.53966925  .00010180  00000+0  41785-3 0  9991",
        "tle_line2": "2 58702  97.4604 164.8217 0003859 314.3370  45.7551 15.24409780106856"
      },
      "geometry": {
        "type": "Point",
        "coordinates": [
          -16.629842360769782,
          -12.153136730458789
        ]
      }
    },
    {
      "type": "Feature",
      "properties": {
        "norad_id": 58703,
        "name": "TIANMU-1 18",
        "group": "weather",
        "lat": -74.37227197429095,
        "lon": -166.876612740668,
        "alt_km": 498.0198399243609,
        "timestamp": "2025-12-09T16:56:36.223632+00:00",
        "meta_object_name": "TIANMU-1 18",
        "meta_object_id": "2024-004D",
        "meta_epoch": "2025-12-09T12:33:03.616992",
        "meta_mean_motion": 15.24398811,
        "meta_eccentricity": 0.0003221,
        "meta_inclination": 97.4621,
        "meta_ra_of_asc_node": 164.9997,
        "meta_arg_of_pericenter": 315.6027,
        "meta_mean_anomaly": 44.4952,
        "meta_ephemeris_type": 0,
        "meta_classification_type": "U",
        "meta_norad_cat_id": 58703,
        "meta_element_set_no": 999,
        "meta_rev_at_epoch": 10685,
        "meta_bstar": 0.00042062,
        "meta_mean_motion_dot": 0.00010244,
        "meta_mean_motion_ddot": 0,
        "tle_line1": "1 58703U 24004D   25343.52295853  .00010244  00000+0  42062-3 0  9996",
        "tle_line2": "2 58703  97.4621 164.9997 0003221 315.6027  44.4952 15.24398811106851"
      },
      "geometry": {
        "type": "Point",
        "coordinates": [
          -166.876612740668,
          -74.37227197429095
        ]
      }
    },
    {
      "type": "Feature",
      "properties": {
        "norad_id": 58990,
        "name": "INSAT-3DS",
        "group": "weather",
        "lat": 0.0077343695903112665,
        "lon": 54.92700127774392,
        "alt_km": 35792.739098383165,
        "timestamp": "2025-12-09T16:56:36.223646+00:00",
        "meta_object_name": "INSAT-3DS",
        "meta_object_id": "2024-033A",
        "meta_epoch": "2025-12-09T10:32:25.112256",
        "meta_mean_motion": 1.00269598,
        "meta_eccentricity": 0.0001637,
        "meta_inclination": 0.0204,
        "meta_ra_of_asc_node": 89.9814,
        "meta_arg_of_pericenter": 174.4971,
        "meta_mean_anomaly": 54.1353,
        "meta_ephemeris_type": 0,
        "meta_classification_type": "U",
        "meta_norad_cat_id": 58990,
        "meta_element_set_no": 999,
        "meta_rev_at_epoch": 4516,
        "meta_bstar": 0,
        "meta_mean_motion_dot": -1.53e-06,
        "meta_mean_motion_ddot": 0,
        "tle_line1": "1 58990U 24033A   25343.43917954 -.00000153  00000+0  00000+0 0  9990",
        "tle_line2": "2 58990   0.0204  89.9814 0001637 174.4971  54.1353  1.00269598 45165"
      },
      "geometry": {
        "type": "Point",
        "coordinates": [
          54.92700127774392,
          0.0077343695903112665
        ]
      }
    },
    {
      "type": "Feature",
      "properties": {
        "norad_id": 59051,
        "name": "METEOR-M2 4",
        "group": "weather",
        "lat": 48.08179902606898,
        "lon": 130.45449603573653,
        "alt_km": 815.802545792787,
        "timestamp": "2025-12-09T16:56:36.223658+00:00",
        "meta_object_name": "METEOR-M2 4",
        "meta_object_id": "2024-039A",
        "meta_epoch": "2025-12-09T12:57:10.898208",
        "meta_mean_motion": 14.22400528,
        "meta_eccentricity": 0.0007224,
        "meta_inclination": 98.6762,
        "meta_ra_of_asc_node": 300.4989,
        "meta_arg_of_pericenter": 7.6925,
        "meta_mean_anomaly": 352.4363,
        "meta_ephemeris_type": 0,
        "meta_classification_type": "U",
        "meta_norad_cat_id": 59051,
        "meta_element_set_no": 999,
        "meta_rev_at_epoch": 9230,
        "meta_bstar": 6.3889e-05,
        "meta_mean_motion_dot": 9.9e-07,
        "meta_mean_motion_ddot": 0,
        "tle_line1": "1 59051U 24039A   25343.53970947  .00000099  00000+0  63889-4 0  9994",
        "tle_line2": "2 59051  98.6762 300.4989 0007224   7.6925 352.4363 14.22400528 92305"
      },
      "geometry": {
        "type": "Point",
        "coordinates": [
          130.45449603573653,
          48.08179902606898
        ]
      }
    },
    {
      "type": "Feature",
      "properties": {
        "norad_id": 60133,
        "name": "GOES 19",
        "group": "weather",
        "lat": 0.0019291250119446005,
        "lon": -102.35323494069237,
        "alt_km": 35782.36735776953,
        "timestamp": "2025-12-09T16:56:36.223670+00:00",
        "meta_object_name": "GOES 19",
        "meta_object_id": "2024-119A",
        "meta_epoch": "2025-12-09T09:20:45.297024",
        "meta_mean_motion": 1.00271447,
        "meta_eccentricity": 0.0001367,
        "meta_inclination": 0.0182,
        "meta_ra_of_asc_node": 156.8959,
        "meta_arg_of_pericenter": 149.196,
        "meta_mean_anomaly": 197.296,
        "meta_ephemeris_type": 0,
        "meta_classification_type": "U",
        "meta_norad_cat_id": 60133,
        "meta_element_set_no": 999,
        "meta_rev_at_epoch": 506,
        "meta_bstar": 0,
        "meta_mean_motion_dot": -2.46e-06,
        "meta_mean_motion_ddot": 0,
        "tle_line1": "1 60133U 24119A   25343.38941316 -.00000246  00000+0  00000+0 0  9993",
        "tle_line2": "2 60133   0.0182 156.8959 0001367 149.1960 197.2960  1.00271447  5067"
      },
      "geometry": {
        "type": "Point",
        "coordinates": [
          -102.35323494069237,
          0.0019291250119446005
        ]
      }
    },
    {
      "type": "Feature",
      "properties": {
        "norad_id": 65815,
        "name": "FENGYUN 3H",
        "group": "weather",
        "lat": 36.588615171612794,
        "lon": -83.13244328307054,
        "alt_km": 822.7543741944855,
        "timestamp": "2025-12-09T16:56:36.223684+00:00",
        "meta_object_name": "FENGYUN 3H",
        "meta_object_id": "2025-219A",
        "meta_epoch": "2025-12-09T10:00:16.208064",
        "meta_mean_motion": 14.19903329,
        "meta_eccentricity": 6.06e-05,
        "meta_inclination": 98.658,
        "meta_ra_of_asc_node": 283.0795,
        "meta_arg_of_pericenter": 85.0513,
        "meta_mean_anomaly": 275.0732,
        "meta_ephemeris_type": 0,
        "meta_classification_type": "U",
        "meta_norad_cat_id": 65815,
        "meta_element_set_no": 999,
        "meta_rev_at_epoch": 1045,
        "meta_bstar": 0.00011546,
        "meta_mean_motion_dot": 2.02e-06,
        "meta_mean_motion_ddot": 0,
        "tle_line1": "1 65815U 25219A   25343.41685426  .00000202  00000+0  11546-3 0  9990",
        "tle_line2": "2 65815  98.6580 283.0795 0000606  85.0513 275.0732 14.19903329 10458"
      },
      "geometry": {
        "type": "Point",
        "coordinates": [
          -83.13244328307054,
          36.588615171612794
        ]
      }
    }
  ]
}